{"type": "FeatureCollection", "features": [ {"type": "Feature", "properties": {"norad_id": 32432, "name": "FENGYUN 1C DEB", "group": "fengyun-1c-debris", "lat": 12.531926093888224, "lon": 21.57774904667391, "alt_km": 672.1128872790696, "timestamp": "2025-12-13T05:42:57.846395+00:00", "meta": {"OBJECT_NAME": "FENGYUN 1C DEB", "OBJECT_ID": "1999-025DAU", "EPOCH": "2025-12-11T09:01:10.543008", "MEAN_MOTION": 14.52447324, "ECCENTRICITY": 0.01726948, "INCLINATION": 98.1718, "RA_OF_ASC_NODE": 21.5937, "ARG_OF_PERICENTER": 309.9521, "MEAN_ANOMALY": 48.6612, "EPHEMERIS_TYPE": 0, "CLASSIFICATION_TYPE": "U", "NORAD_CAT_ID": 32432, "ELEMENT_SET_NO": 999, "REV_AT_EPOCH": 70675, "BSTAR": 0.0029978427, "MEAN_MOTION_DOT": 0.00014846, "MEAN_MOTION_DDOT": 0}, "tle": {"line1": "1 32432U 99025DAU 25345.37581647  .00014846  00000+0  29978-2 0  9998", "line2": "2 32432  98.1718  21.5937 0172694 309.9521  48.6612 14.52447324706753"}}, "geometry": {"type": "Point", "coordinates": [21.57774904667391, 12.531926093888224]}}, {"type": "Feature", "properties": {"norad_id": 32440, "name": "FENGYUN 1C DEB", "group": "fengyun-1c-debris", "lat": 19.2909982926328, "lon": 25.684126206364194, "alt_km": 945.7040919743858, "timestamp": "2025-12-13T05:42:57.846406+00:00", "meta": {"OBJECT_NAME": "FENGYUN 1C DEB", "OBJECT_ID": "1999-025DBC", "EPOCH": "2025-12-10T08:10:09.004800", "MEAN_MOTION": 13.61236458, "ECCENTRICITY": 0.03217312, "INCLINATION": 99.1535, "RA_OF_ASC_NODE": 199.7288, "ARG_OF_PERICENTER": 97.09, "MEAN_ANOMALY": 266.6938, "EPHEMERIS_TYPE": 0, "CLASSIFICATION_TYPE": "U", "NORAD_CAT_ID": 32440, "ELEMENT_SET_NO": 999, "REV_AT_EPOCH": 60253, "BSTAR": 0.0037130678, "MEAN_MOTION_DOT": 3.952e-05, "MEAN_MOTION_DDOT": 0}, "tle": {"line1": "1 32440U 99025DBC 25344.34038200  .00003952  00000+0  37131-2 0  9991", "line2": "2 32440  99.1535 199.7288 0321731  97.0900 266.6938 13.61236458602538"}}, "geometry": {"type": "Point", "coordinates": [25.684126206364194, 19.2909982926328]}}, {"type": "Feature", "properties": {"norad_id": 32447, "name": "FENGYUN 1C DEB", "group": "fengyun-1c-debris", "lat": 71.69856051983687, "lon": -148.2597146053566, "alt_km": 876.6976583780861, "timestamp": "2025-12-13T05:42:57.846417+00:00", "meta": {"OBJECT_NAME": "FENGYUN 1C DEB", "OBJECT_ID": "1999-025DBK", "EPOCH": "2025-12-09T20:22:18.261408", "MEAN_MOTION": 13.96013309, "ECCENTRICITY": 0.00800272, "INCLINATION": 98.9313, "RA_OF_ASC_NODE": 0.0649, "ARG_OF_PERICENTER": 49.1812, "MEAN_ANOMALY": 311.6255, "EPHEMERIS_TYPE": 0, "CLASSIFICATION_TYPE": "U", "NORAD_CAT_ID": 32447, "ELEMENT_SET_NO": 999, "REV_AT_EPOCH": 67838, "BSTAR": 0.00036340481, "MEAN_MOTION_DOT": 4.69e-06, "MEAN_MOTION_DDOT": 0}, "tle": {"line1": "1 32447U 99025DBK 25343.84882247  .00000469  00000+0  36340-3 0  9992", "line2": "2 32447  98.9313   0.0649 0080027  49.1812 311.6255 13.96013309678386"}}, "geometry": {"type": "Point", "coordinates": [-148.2597146053566, 71.69856051983687]}}, {"type": "Feature", "properties": {"norad_id": 32451, "name": "FENGYUN 1C DEB", "group": "fengyun-1c-debris", "lat": 66.98836974899945, "lon": 171.5196328308391, "alt_km": 914.7209617967774, "timestamp": "2025-12-13T05:42:57.846427+00:00", "meta": {"OBJECT_NAME": "FENGYUN 1C DEB", "OBJECT_ID": "1999-025DBP", "EPOCH": "2025-12-12T03:11:36.874752", "MEAN_MOTION": 13.86566826, "ECCENTRICITY": 0.01853194, "INCLINATION": 99.9714, "RA_OF_ASC_NODE": 325.8729, "ARG_OF_PERICENTER": 196.5555, "MEAN_ANOMALY": 162.9495, "EPHEMERIS_TYPE": 0, "CLASSIFICATION_TYPE": "U", "NORAD_CAT_ID": 32451, "ELEMENT_SET_NO": 999, "REV_AT_EPOCH": 61756, "BSTAR": 0.0027241507, "MEAN_MOTION_DOT": 3.574e-05, "MEAN_MOTION_DDOT": 0}, "tle": {"line1": "1 32451U 99025DBP 25346.13306568  .00003574  00000+0  27242-2 0  9999", "line2": "2 32451  99.9714 325.8729 0185319 196.5555 162.9495 13.86566826617567"}}, "geometry": {"type": "Point", "coordinates": [171.5196328308391, 66.98836974899945]}}, {"type": "Feature", "properties": {"norad_id": 32453, "name": "FENGYUN 1C DEB", "group": "fengyun-1c-debris", "lat": 55.591297754983074, "lon": -116.99524117848561, "alt_km": 939.7541784759214, "timestamp": "2025-12-13T05:42:57.846438+00:00", "meta": {"OBJECT_NAME": "FENGYUN 1C DEB", "OBJECT_ID": "1999-025DBR", "EPOCH": "2025-12-11T12:20:31.094592", "MEAN_MOTION": 14.02250131, "ECCENTRICITY": 0.00963031, "INCLINATION": 99.3722, "RA_OF_ASC_NODE": 255.1856, "ARG_OF_PERICENTER": 209.4918, "MEAN_ANOMALY": 150.0793, "EPHEMERIS_TYPE": 0, "CLASSIFICATION_TYPE": "U", "NORAD_CAT_ID": 32453, "ELEMENT_SET_NO": 999, "REV_AT_EPOCH": 93411, "BSTAR": 0.0010354241, "MEAN_MOTION_DOT": 1.605e-05, "MEAN_MOTION_DDOT": 0}, "tle": {"line1": "1 32453U 99025DBR 25345.51424878  .00001605  00000+0  10354-2 0  9996", "line2": "2 32453  99.3722 255.1856 0096303 209.4918 150.0793 14.02250131934119"}}, "geometry": {"type": "Point", "coordinates": [-116.99524117848561, 55.591297754983074]}}, {"type": "Feature", "properties": {"norad_id": 32455, "name": "FENGYUN 1C DEB", "group": "fengyun-1c-debris", "lat": 71.80106944208072, "lon": 38.69630108256762, "alt_km": 779.3569601655763, "timestamp": "2025-12-13T05:42:57.846449+00:00", "meta": {"OBJECT_NAME": "FENGYUN 1C DEB", "OBJECT_ID": "1999-025DBT", "EPOCH": "2025-12-11T06:39:28.496160", "MEAN_MOTION": 13.92448217, "ECCENTRICITY": 0.02362641, "INCLINATION": 101.7339, "RA_OF_ASC_NODE": 177.0068, "ARG_OF_PERICENTER": 148.9162, "MEAN_ANOMALY": 212.6213, "EPHEMERIS_TYPE": 0, "CLASSIFICATION_TYPE": "U", "NORAD_CAT_ID": 32455, "ELEMENT_SET_NO": 999, "REV_AT_EPOCH": 64395, "BSTAR": 0.004280984, "MEAN_MOTION_DOT": 6.869e-05, "MEAN_MOTION_DDOT": 0}, "tle": {"line1": "1 32455U 99025DBT 25345.27741315  .00006869  00000+0  42810-2 0  9998", "line2": "2 32455 101.7339 177.0068 0236264 148.9162 212.6213 13.92448217643953"}}, "geometry": {"type": "Point", "coordinates": [38.69630108256762, 71.80106944208072]}}, {"type": "Feature", "properties": {"norad_id": 32456, "name": "FENGYUN 1C DEB", "group": "fengyun-1c-debris", "lat": -54.51426211676819, "lon": -72.18237792044626, "alt_km": 853.8349838132026, "timestamp": "2025-12-13T05:42:57.846459+00:00", "meta": {"OBJECT_NAME": "FENGYUN 1C DEB", "OBJECT_ID": "1999-025DBU", "EPOCH": "2025-12-07T15:29:29.480640", "MEAN_MOTION": 13.3560312, "ECCENTRICITY": 0.03795662, "INCLINATION": 103.6664, "RA_OF_ASC_NODE": 120.3053, "ARG_OF_PERICENTER": 235.7459, "MEAN_ANOMALY": 120.7155, "EPHEMERIS_TYPE": 0, "CLASSIFICATION_TYPE": "U", "NORAD_CAT_ID": 32456, "ELEMENT_SET_NO": 999, "REV_AT_EPOCH": 60548, "BSTAR": 0.0033121081, "MEAN_MOTION_DOT": 2.469e-05, "MEAN_MOTION_DDOT": 0}, "tle": {"line1": "1 32456U 99025DBU 25341.64548010  .00002469  00000+0  33121-2 0  9990", "line2": "2 32456 103.6664 120.3053 0379566 235.7459 120.7155 13.35603120605481"}}, "geometry": {"type": "Point", "coordinates": [-72.18237792044626, -54.51426211676819]}}, {"type": "Feature", "properties": {"norad_id": 32458, "name": "FENGYUN 1C DEB", "group": "fengyun-1c-debris", "lat": 47.047569269715765, "lon": -162.97864049256242, "alt_km": 695.7337108338434, "timestamp": "2025-12-13T05:42:57.846470+00:00", "meta": {"OBJECT_NAME": "FENGYUN 1C DEB", "OBJECT_ID": "1999-025DBW", "EPOCH": "2025-12-08T06:52:15.068064", "MEAN_MOTION": 14.62160146, "ECCENTRICITY": 0.00405564, "INCLINATION": 99.046, "RA_OF_ASC_NODE": 1.7508, "ARG_OF_PERICENTER": 27.6994, "MEAN_ANOMALY": 332.6353, "EPHEMERIS_TYPE": 0, "CLASSIFICATION_TYPE": "U", "NORAD_CAT_ID": 32458, "ELEMENT_SET_NO": 999, "REV_AT_EPOCH": 67724, "BSTAR": 0.0019224362, "MEAN_MOTION_DOT": 9.742e-05, "MEAN_MOTION_DDOT": 0}, "tle": {"line1": "1 32458U 99025DBW 25342.28628551  .00009742  00000+0  19224-2 0  9991", "line2": "2 32458  99.0460   1.7508 0040556  27.6994 332.6353 14.62160146677242"}}, "geometry": {"type": "Point", "coordinates": [-162.97864049256242, 47.047569269715765]}}, {"type": "Feature", "properties": {"norad_id": 32459, "name": "FENGYUN 1C DEB", "group": "fengyun-1c-debris", "lat": 15.033251987702913, "lon": -176.29692685666186, "alt_km": 607.0159620155027, "timestamp": "2025-12-13T05:42:57.846480+00:00", "meta": {"OBJECT_NAME": "FENGYUN 1C DEB", "OBJECT_ID": "1999-025DBX", "EPOCH": "2025-12-10T18:41:41.819136", "MEAN_MOTION": 14.42793421, "ECCENTRICITY": 0.02131784, "INCLINATION": 98.3025, "RA_OF_ASC_NODE": 359.0584, "ARG_OF_PERICENTER": 192.2812, "MEAN_ANOMALY": 167.3135, "EPHEMERIS_TYPE": 0, "CLASSIFICATION_TYPE": "U", "NORAD_CAT_ID": 32459, "ELEMENT_SET_NO": 999, "REV_AT_EPOCH": 94522, "BSTAR": 0.00080448392, "MEAN_MOTION_DOT": 3.48e-05, "MEAN_MOTION_DDOT": 0}, "tle": {"line1": "1 32459U 99025DBX 25344.77895624  .00003480  00000+0  80448-3 0  9995", "line2": "2 32459  98.3025 359.0584 0213178 192.2812 167.3135 14.42793421945228"}}, "geometry": {"type": "Point", "coordinates": [-176.29692685666186, 15.033251987702913]}}, {"type": "Feature", "properties": {"norad_id": 32460, "name": "FENGYUN 1C DEB", "group": "fengyun-1c-debris", "lat": 64.79722660785805, "lon": -30.23211684539221, "alt_km": 789.5154590727416, "timestamp": "2025-12-13T05:42:57.846491+00:00", "meta": {"OBJECT_NAME": "FENGYUN 1C DEB", "OBJECT_ID": "1999-025DBY", "EPOCH": "2025-12-07T16:06:34.298784", "MEAN_MOTION": 13.89549583, "ECCENTRICITY": 0.01857937, "INCLINATION": 98.0182, "RA_OF_ASC_NODE": 127.5395, "ARG_OF_PERICENTER": 138.2427, "MEAN_ANOMALY": 223.3085, "EPHEMERIS_TYPE": 0, "CLASSIFICATION_TYPE": "U", "NORAD_CAT_ID": 32460, "ELEMENT_SET_NO": 999, "REV_AT_EPOCH": 65183, "BSTAR": 0.0019975298, "MEAN_MOTION_DOT": 2.774e-05, "MEAN_MOTION_DDOT": 0}, "tle": {"line1": "1 32460U 99025DBY 25341.67123031  .00002774  00000+0  19975-2 0  9990", "line2": "2 32460  98.0182 127.5395 0185793 138.2427 223.3085 13.89549583651838"}}, "geometry": {"type": "Point", "coordinates": [-30.23211684539221, 64.79722660785805]}}]}